UME (ISS)               
1 08709U 76019A   24290.53101991  .00000209  00000+0  28942-3 0  9991
2 08709  69.6746 324.6518 0013852 293.0143 174.7767 13.71649408433624
UME-2 (ISS-B)           
1 10674U 78018A   24290.46950144 -.00000018  00000+0  51551-4 0  9992
2 10674  69.3648  38.6678 0161733  45.0702  27.0942 13.43679585288860
ISS (ZARYA)             
1 25544U 98067A   24291.20635394  .00024836  00000+0  44173-3 0  9994
2 25544  51.6384  71.0223 0009135  77.3827 282.8183 15.49966283477470
SWISSCUBE               
1 35932U 09051B   24290.65227228  .00004496  00000+0  94814-3 0  9999
2 35932  98.4514 176.3344 0006199 313.4863  46.5820 14.59921463800272
AISSAT 1                
1 36797U 10035C   24291.15623527  .00006056  00000+0  59450-3 0  9992
2 36797  98.1651 157.2125 0008465 267.2487  92.7762 14.92553315773486
AISSAT 2                
1 40075U 14037G   24291.06645169  .00007035  00000+0  76453-3 0  9998
2 40075  98.3345 216.3482 0007093  85.6172 274.5853 14.88408874556185
ISS (NAUKA)             
1 49044U 21066A   24290.81950199  .00025464  00000+0  45295-3 0  9993
2 49044  51.6380  72.9394 0009150  75.9804 284.2202 15.49947428183148
OUTPOST MISSION 1       
1 56226U 23084BK  24290.31811097  .00027603  00000+0  10040-2 0  9999
2 56226  97.5533  50.4956 0007037 305.0919  54.9660 15.28194569 74627
OUTPOST MISSION 2       
1 58334U 23174CG  24291.21386761  .00023422  00000+0  94688-3 0  9992
2 58334  97.4516   5.1514 0011567 138.7361 221.4752 15.24675051 52288
